EUTELSAT 21B            
1 38992U 12062B   25209.55437793  .00000125  00000+0  00000+0 0  9999
2 38992   0.0664   2.3946 0002973 120.0473  45.1754  1.00270246 46582
EUTELSAT 70B            
1 39020U 12069A   25209.56407782 -.00000048  00000+0  00000+0 0  9990
2 39020   0.0618   3.4848 0003557 124.2602  92.2736  1.00271377 46260
EUTELSAT 117 WEST A     
1 39122U 13012A   25209.53794527 -.00000017  00000+0  00000+0 0  9991
2 39122   0.0164  62.4971 0002909  71.1815 249.6053  1.00271766 45189
EUTELSAT 7B             
1 39163U 13022A   25209.55151792  .00000044  00000+0  00000+0 0  9999
2 39163   0.0772 328.9582 0002922  79.3991 103.6301  1.00273707 44717
EXPRESS-AT1             
1 39612U 14010A   25210.13334961  .00000076  00000+0  00000+0 0  9998
2 39612   0.0130  74.4317 0000169 350.6268 345.9848  1.00271303 41811
EXPRESS-AT2             
1 39613U 14010B   25209.98419557 -.00000284  00000+0  00000+0 0  9997
2 39613   0.0216 304.4662 0000330  87.8062  48.7579  1.00272880 41648
EUTELSAT 3B             
1 39773U 14030A   25209.55073792  .00000015  00000+0  00000+0 0  9997
2 39773   0.0613   4.3950 0004052 128.9024  14.4961  1.00271284 40823
EUTELSAT 115 WEST B     
1 40425U 15010B   25210.45529465 -.00000026  00000+0  00000+0 0  9999
2 40425   0.0044 133.3772 0000309  72.7728 150.1918  1.00273034 38192
